NORAD_CAT_ID,OBJECT_NAME,OBJECT_TYPE,EPOCH,MEAN_MOTION,ECCENTRICITY,INCLINATION,RA_OF_ASC_NODE,ARG_OF_PERICENTER,MEAN_ANOMALY,BSTAR,MEAN_MOTION_DOT,MEAN_MOTION_DDOT,TLE_LINE0,TLE_LINE1,TLE_LINE2,SEMIMAJOR_AXIS,PERIOD,APOGEE,PERIGEE,DECAYED
55758.0,STARLINK-5072,PAYLOAD,2023-04-17 14:00:01,15.33572534,0.0003184,70.0028,30.969,267.6055,186.5426,-0.027906,-0.00839171,0.0,0 STARLINK-5072,1 55758U 23028T   23107.58334491 -.00839171  00000-0 -27906-1 0  9991,2 55758  70.0028  30.9690 0003184 267.6055 186.5426 15.33572534  1307,6843.301,93.898,467.345,462.987,0.0
55758.0,STARLINK-5072,PAYLOAD,2023-04-17 22:00:00,15.329818,0.0003182,70.0031,30.0822,270.8408,222.6945,-0.032591,-0.00951585,0.0,0 STARLINK-5072,1 55758U 23028T   23107.91667824 -.00951585  00000-0 -32591-1 0  9997,2 55758  70.0031  30.0822 0003182 270.8408 222.6945 15.32981800  1302,6845.059,93.935,469.102,464.746,0.0
55758.0,STARLINK-5072,PAYLOAD,2023-04-18 14:00:01,15.31619344,0.0003097,70.0032,28.3112,269.386,300.6175,-0.029733,-0.00840609,0.0,0 STARLINK-5072,1 55758U 23028T   23108.58334491 -.00840609  00000-0 -29733-1 0  9990,2 55758  70.0032  28.3112 0003097 269.3860 300.6175 15.31619344  1307,6849.117,94.018,473.104,468.861,0.0
55758.0,STARLINK-5072,PAYLOAD,2023-04-18 22:00:00,15.31018427,0.0003137,70.0033,27.4272,270.2085,336.8393,-0.034311,-0.00942676,0.0,0 STARLINK-5072,1 55758U 23028T   23108.91667824 -.00942676  00000-0 -34311-1 0  9991,2 55758  70.0033  27.4272 0003137 270.2085 336.8393 15.31018427  1308,6850.909,94.055,474.924,470.625,0.0
55758.0,STARLINK-5072,PAYLOAD,2023-04-19 06:00:00,15.30361639,0.0003129,70.003,26.5439,275.2812,8.0341,-0.03412,-0.00920419,0.0,0 STARLINK-5072,1 55758U 23028T   23109.25001157 -.00920419  00000-0 -34120-1 0  9999,2 55758  70.0030  26.5439 0003129 275.2812   8.0341 15.30361639  7913,6852.869,94.095,476.879,472.59,0.0
55758.0,STARLINK-5072,PAYLOAD,2023-04-19 14:00:01,15.29665349,0.0003226,70.0033,25.6617,269.38,49.4387,-0.031723,-0.00843722,0.0,0 STARLINK-5072,1 55758U 23028T   23109.58334491 -.00843722  00000-0 -31723-1 0  9992,2 55758  70.0033  25.6617 0003226 269.3800  49.4387 15.29665349  1302,6854.949,94.138,479.025,474.602,0.0
55758.0,STARLINK-5072,PAYLOAD,2023-04-19 22:00:00,15.29058841,0.0003266,70.0034,24.7803,271.2834,82.2366,-0.036268,-0.00950023,0.0,0 STARLINK-5072,1 55758U 23028T   23109.91667824 -.00950023  00000-0 -36268-1 0  9990,2 55758  70.0034  24.7803 0003266 271.2834  82.2366 15.29058841  1308,6856.761,94.176,480.866,476.387,0.0
55758.0,STARLINK-5072,PAYLOAD,2023-04-20 14:00:01,15.27710497,0.0003216,70.0033,23.0199,271.7076,148.8864,-0.033807,-0.00846458,0.0,0 STARLINK-5072,1 55758U 23028T   23110.58334491 -.00846458  00000-0 -33807-1 0  9998,2 55758  70.0033  23.0199 0003216 271.7076 148.8864 15.27710497  1307,6860.795,94.259,484.867,480.454,0.0
55758.0,STARLINK-5072,PAYLOAD,2023-04-20 22:00:00,15.27098908,0.0003171,70.0035,22.1411,273.1633,179.7879,-0.038367,-0.00946682,0.0,0 STARLINK-5072,1 55758U 23028T   23110.91667824 -.00946682  00000-0 -38367-1 0  9990,2 55758  70.0035  22.1411 0003171 273.1633 179.7879 15.27098908  1306,6862.627,94.296,486.668,482.316,0.0
55758.0,STARLINK-5072,PAYLOAD,2023-04-21 14:00:01,15.25758123,0.0003073,70.0032,20.3859,270.7353,244.5929,-0.03615,-0.0085245,0.0,0 STARLINK-5072,1 55758U 23028T   23111.58334491 -.00852450  00000-0 -36150-1 0  9992,2 55758  70.0032  20.3859 0003073 270.7353 244.5929 15.25758123  1309,6866.647,94.379,490.622,486.402,0.0
55758.0,STARLINK-5072,PAYLOAD,2023-04-21 22:00:00,15.25135469,0.0003072,70.0034,19.5097,271.8454,273.4972,-0.040204,-0.00935603,0.0,0 STARLINK-5072,1 55758U 23028T   23111.91667824 -.00935603  00000-0 -40204-1 0  9995,2 55758  70.0034  19.5097 0003072 271.8454 273.4972 15.25135469  1309,6868.516,94.418,492.491,488.271,0.0
55758.0,STARLINK-5072,PAYLOAD,2023-04-22 14:00:01,15.23804104,0.0003108,70.0029,17.7596,267.5255,335.4972,-0.038562,-0.00857103,0.0,0 STARLINK-5072,1 55758U 23028T   23112.58334491 -.00857103  00000-0 -38562-1 0  9992,2 55758  70.0029  17.7596 0003108 267.5255 335.4972 15.23804104  1304,6872.516,94.5,496.517,492.245,0.0
55758.0,STARLINK-5072,PAYLOAD,2023-04-22 22:00:01,15.23174934,0.0003145,70.0031,16.886,269.8559,0.8995,-0.042276,-0.00928352,0.0,0 STARLINK-5072,1 55758U 23028T   23112.91668981 -.00928352  00000-0 -42276-1 0  9995,2 55758  70.0031  16.8860 0003145 269.8559   0.8995 15.23174934  1303,6874.408,94.539,498.435,494.111,0.0
55758.0,STARLINK-5072,PAYLOAD,2023-04-23 14:00:01,15.21848478,0.0003212,70.0027,15.1411,267.089,56.5882,-0.040968,-0.00859057,0.0,0 STARLINK-5072,1 55758U 23028T   23113.58334491 -.00859057  00000-0 -40968-1 0  9996,2 55758  70.0027  15.1411 0003212 267.0890  56.5882 15.21848478  1307,6878.402,94.622,502.477,498.058,0.0
55758.0,STARLINK-5072,PAYLOAD,2023-04-23 20:00:01,15.21406735,0.0003102,70.003,14.4877,267.259,345.4733,-0.04633,-0.00962741,0.0,0 STARLINK-5072,1 55758U 23028T   23113.83334491 -.00962741  00000-0 -46330-1 0  9998,2 55758  70.0030  14.4877 0003102 267.2590 345.4733 15.21406735  8618,6879.734,94.649,503.733,499.464,0.0
55758.0,STARLINK-5072,PAYLOAD,2023-04-23 22:00:00,15.21217909,0.0003223,70.0029,14.2699,270.4147,78.5853,-0.044753,-0.0092756,0.0,0 STARLINK-5072,1 55758U 23028T   23113.91667824 -.00927560  00000-0 -44753-1 0  9993,2 55758  70.0029  14.2699 0003223 270.4147  78.5853 15.21217909  1303,6880.303,94.661,504.385,499.95,0.0
55758.0,STARLINK-5072,PAYLOAD,2023-04-24 14:00:01,15.19893302,0.0003258,70.0024,12.5303,267.518,129.7737,-0.043577,-0.00872797,0.0,0 STARLINK-5072,1 55758U 23028T   23114.58334491 -.00872797  00000-0 -43577-1 0  9992,2 55758  70.0024  12.5303 0003258 267.5180 129.7737 15.19893302  8731,6884.3,94.743,508.408,503.922,0.0
55758.0,STARLINK-5072,PAYLOAD,2023-04-25 14:00:01,15.17942624,0.0003123,70.0023,9.9272,266.8843,197.0414,-0.04666,-0.00882394,0.0,0 STARLINK-5072,1 55758U 23028T   23115.58335648 -.00882394  00000-0 -46660-1 0  9998,2 55758  70.0023   9.9272 0003123 266.8843 197.0414 15.17942624  1300,6890.196,94.865,514.213,509.91,0.0
55758.0,STARLINK-5072,PAYLOAD,2023-04-25 20:00:01,15.17489261,0.0003229,70.0027,9.2775,267.1502,122.2513,-0.051749,-0.00959699,0.0,0 STARLINK-5072,1 55758U 23028T   23115.83334491 -.00959699  00000-0 -51749-1 0  9998,2 55758  70.0027   9.2775 0003229 267.1502 122.2513 15.17489261  8926,6891.569,94.894,515.659,511.208,0.0
55758.0,STARLINK-5072,PAYLOAD,2023-04-26 14:00:01,15.15991541,0.0003048,70.0023,7.3319,265.2815,258.1121,-0.049925,-0.00891997,0.0,0 STARLINK-5072,1 55758U 23028T   23116.58334491 -.00891997  00000-0 -49925-1 0  9990,2 55758  70.0023   7.3319 0003048 265.2815 258.1121 15.15991541  9034,6896.107,94.987,520.074,515.87,0.0
55758.0,STARLINK-5072,PAYLOAD,2023-04-26 22:00:00,15.15334446,0.0003069,70.0025,6.4685,270.6729,271.0107,-0.051749,-0.00906345,0.0,0 STARLINK-5072,1 55758U 23028T   23116.91667824 -.00906345  00000-0 -51749-1 0  9997,2 55758  70.0025   6.4685 0003069 270.6729 271.0107 15.15334446  1304,6898.1,95.029,522.082,517.848,0.0
55758.0,STARLINK-5072,PAYLOAD,2023-04-27 04:00:00,15.14861677,0.0003126,70.0024,5.8215,276.3715,188.4969,-0.053103,-0.00916851,0.0,0 STARLINK-5072,1 55758U 23028T   23117.16667824 -.00916851  00000-0 -53103-1 0  9994,2 55758  70.0024   5.8215 0003126 276.3715 188.4969 15.14861677  9122,6899.536,95.058,523.557,519.244,0.0
55758.0,STARLINK-5072,PAYLOAD,2023-04-27 14:00:01,15.14038215,0.0003064,70.0023,4.7444,266.0509,309.8969,-0.053135,-0.00897711,0.0,0 STARLINK-5072,1 55758U 23028T   23117.58335648 -.00897711  00000-0 -53135-1 0  9994,2 55758  70.0023   4.7444 0003064 266.0509 309.8969 15.14038215  1306,6902.037,95.11,526.017,521.787,0.0
55758.0,STARLINK-5072,PAYLOAD,2023-04-27 22:00:00,15.13372978,0.0003084,70.0026,3.8836,268.9634,322.8676,-0.054129,-0.00897534,0.0,0 STARLINK-5072,1 55758U 23028T   23117.91667824 -.00897534  00000-0 -54129-1 0  9992,2 55758  70.0026   3.8836 0003084 268.9634 322.8676 15.13372978  9232,6904.059,95.152,528.054,523.795,0.0
55758.0,STARLINK-5072,PAYLOAD,2023-04-28 14:00:01,15.12084566,0.0003122,70.0024,2.1649,264.5689,356.7665,-0.056481,-0.00902904,0.0,0 STARLINK-5072,1 55758U 23028T   23118.58334491 -.00902904  00000-0 -56481-1 0  9998,2 55758  70.0024   2.1649 0003122 264.5689 356.7665 15.12084566  9336,6907.981,95.233,532.002,527.689,0.0
55758.0,STARLINK-5072,PAYLOAD,2023-04-29 06:00:00,15.10809697,0.0003116,70.0023,0.4494,270.3616,17.3577,-0.063145,-0.00968769,0.0,0 STARLINK-5072,1 55758U 23028T   23119.25001157 -.00968769  00000-0 -63145-1 0  9999,2 55758  70.0023   0.4494 0003116 270.3616  17.3577 15.10809697  9433,6911.866,95.313,535.885,531.578,0.0
55758.0,STARLINK-5072,PAYLOAD,2023-04-29 14:00:01,15.10131492,0.0003151,70.0025,359.5931,263.7739,36.0351,-0.060027,-0.00908466,0.0,0 STARLINK-5072,1 55758U 23028T   23119.58335648 -.00908466  00000-0 -60027-1 0  9994,2 55758  70.0025 359.5931 0003151 263.7739  36.0351 15.10131492  1307,6913.936,95.356,537.979,533.622,0.0
55758.0,STARLINK-5072,PAYLOAD,2023-04-29 22:00:00,15.09458711,0.0003111,70.0028,358.7376,269.1497,41.8499,-0.060208,-0.00895432,0.0,0 STARLINK-5072,1 55758U 23028T   23119.91667824 -.00895432  00000-0 -60208-1 0  9994,2 55758  70.0028 358.7376 0003111 269.1497  41.8499 15.09458711  9546,6915.99,95.398,540.006,535.703,0.0
55758.0,STARLINK-5072,PAYLOAD,2023-04-30 14:00:01,15.0817773,0.0003184,70.0026,357.0292,263.7203,67.3958,-0.063736,-0.00913725,0.0,0 STARLINK-5072,1 55758U 23028T   23120.58334491 -.00913725  00000-0 -63736-1 0  9995,2 55758  70.0026 357.0292 0003184 263.7203  67.3958 15.08177730  9640,6919.905,95.479,543.974,539.567,0.0
55758.0,STARLINK-5072,PAYLOAD,2023-05-01 06:00:00,15.06893166,0.0003141,70.0025,355.3242,269.9832,78.1325,-0.070086,-0.00965817,0.0,0 STARLINK-5072,1 55758U 23028T   23121.25001157 -.00965817  00000-0 -70086-1 0  9995,2 55758  70.0025 355.3242 0003141 269.9832  78.1325 15.06893166  9749,6923.837,95.561,547.877,543.528,0.0
